ALOS (DAICHI)           
1 28931U 06002A   25351.73419158  .00001110  00000+0  19545-3 0  9994
2 28931  98.1098 303.1864 0001361 113.5739 246.5610 14.69501788 61443
H-2A R/B                
1 28932U 06002B   25363.30027822  .00014581  00000+0  75672-3 0  9993
2 28932  98.2320 139.4058 0054920 120.4677 240.1994 15.14921835 83770
RESURS-DK 1             
1 29228U 06021A   25363.30107778  .00004347  00000+0  25674-3 0  9998
2 29228  69.9344  59.0347 0007013 244.5039 115.5402 15.12261929 76881
CZ-4B R/B               
1 29507U 06046C   25363.07290828  .00007912  00000+0  40871-3 0  9995
2 29507  97.5718  43.1667 0034614 150.0983 210.2237 15.16043238 49343
CZ-2C R/B               
1 31114U 07010B   25363.27503708  .00000234  00000+0  12631-3 0  9993
2 31114  98.3974 115.0938 0059793 138.2318 222.3447 14.20217058969725
COSMO-SKYMED 1          
1 31598U 07023A   25363.24409796  .00005693  00000+0  51408-3 0  9991
2 31598  97.8835 188.7525 0001016  80.0268 280.1067 14.95893942  4378
COSMOS 2428             
1 31792U 07029A   25363.16343137  .00000310  00000+0  19219-3 0  9995
2 31792  70.9372 351.3958 0004603   0.7724 359.3403 14.12897567954138
SL-16 R/B               
1 31793U 07029B   25363.30845770  .00000278  00000+0  16875-3 0  9990
2 31793  70.9770 320.3283 0001927 268.7371 261.9874 14.14821765955419
KORONAS-FOTON           
1 33504U 09003A   25363.04937890  .00011871  00000+0  28136-3 0  9996
2 33504  82.4307 349.2011 0013067  57.9365 302.3148 15.41510670934853
CZ-2C R/B               
1 37731U 11030B   25362.87658348  .00001958  00000+0  25420-3 0  9991
2 37731  97.8435 316.6283 0051729 219.6948 197.7894 14.80953913779619
H-2A R/B                
1 38341U 12025E   25362.77541639  .00004545  00000+0  41836-3 0  9991
2 38341  98.4621 319.2451 0044801 182.5716 177.5279 14.94553120737620
SHIJIAN-16 (SJ-16)      
1 39358U 13057A   25363.29874560  .00002616  00000+0  25978-3 0  9992
2 39358  74.9735 318.3213 0017953 281.4032  78.5140 14.92043837661000
