CCSDS_OMM_VERS = 2.0
CREATION_DATE  = 
ORIGINATOR     = 

OBJECT_NAME    = ALOS (DAICHI)
OBJECT_ID      = 2006-002A
CENTER_NAME    = EARTH
REF_FRAME      = TEME
TIME_SYSTEM    = UTC
MEAN_ELEMENT_THEORY = SGP/SGP4

EPOCH          = 2025-12-17T17:37:14.152512
MEAN_MOTION    = 14.69501788
ECCENTRICITY   = .00013612
INCLINATION    = 98.1098
RA_OF_ASC_NODE = 303.1864
ARG_OF_PERICENTER = 113.5739
MEAN_ANOMALY   = 246.5610

EPHEMERIS_TYPE = 0
CLASSIFICATION_TYPE = U
NORAD_CAT_ID   = 28931
ELEMENT_SET_NO = 999
REV_AT_EPOCH   = 6144
BSTAR          = .19545051E-3
MEAN_MOTION_DOT = .111E-4
MEAN_MOTION_DDOT = 0

CCSDS_OMM_VERS = 2.0
CREATION_DATE  = 
ORIGINATOR     = 

OBJECT_NAME    = H-2A R/B
OBJECT_ID      = 2006-002B
CENTER_NAME    = EARTH
REF_FRAME      = TEME
TIME_SYSTEM    = UTC
MEAN_ELEMENT_THEORY = SGP/SGP4

EPOCH          = 2025-12-29T07:12:24.038208
MEAN_MOTION    = 15.14921835
ECCENTRICITY   = .00549206
INCLINATION    = 98.2320
RA_OF_ASC_NODE = 139.4058
ARG_OF_PERICENTER = 120.4677
MEAN_ANOMALY   = 240.1994

EPHEMERIS_TYPE = 0
CLASSIFICATION_TYPE = U
NORAD_CAT_ID   = 28932
ELEMENT_SET_NO = 999
REV_AT_EPOCH   = 8377
BSTAR          = .75672358E-3
MEAN_MOTION_DOT = .14581E-3
MEAN_MOTION_DDOT = 0

CCSDS_OMM_VERS = 2.0
CREATION_DATE  = 
ORIGINATOR     = 

OBJECT_NAME    = RESURS-DK 1
OBJECT_ID      = 2006-021A
CENTER_NAME    = EARTH
REF_FRAME      = TEME
TIME_SYSTEM    = UTC
MEAN_ELEMENT_THEORY = SGP/SGP4

EPOCH          = 2025-12-29T07:13:33.120192
MEAN_MOTION    = 15.12261929
ECCENTRICITY   = .0007013
INCLINATION    = 69.9344
RA_OF_ASC_NODE = 59.0347
ARG_OF_PERICENTER = 244.5039
MEAN_ANOMALY   = 115.5402

EPHEMERIS_TYPE = 0
CLASSIFICATION_TYPE = U
NORAD_CAT_ID   = 29228
ELEMENT_SET_NO = 999
REV_AT_EPOCH   = 7688
BSTAR          = .25674347E-3
MEAN_MOTION_DOT = .4347E-4
MEAN_MOTION_DDOT = 0

CCSDS_OMM_VERS = 2.0
CREATION_DATE  = 
ORIGINATOR     = 

OBJECT_NAME    = CZ-4B R/B
OBJECT_ID      = 2006-046C
CENTER_NAME    = EARTH
REF_FRAME      = TEME
TIME_SYSTEM    = UTC
MEAN_ELEMENT_THEORY = SGP/SGP4

EPOCH          = 2025-12-29T01:44:59.275392
MEAN_MOTION    = 15.16043238
ECCENTRICITY   = .00346142
INCLINATION    = 97.5718
RA_OF_ASC_NODE = 43.1667
ARG_OF_PERICENTER = 150.0983
MEAN_ANOMALY   = 210.2237

EPHEMERIS_TYPE = 0
CLASSIFICATION_TYPE = U
NORAD_CAT_ID   = 29507
ELEMENT_SET_NO = 999
REV_AT_EPOCH   = 4934
BSTAR          = .4087107E-3
MEAN_MOTION_DOT = .7912E-4
MEAN_MOTION_DDOT = 0

CCSDS_OMM_VERS = 2.0
CREATION_DATE  = 
ORIGINATOR     = 

OBJECT_NAME    = CZ-2C R/B
OBJECT_ID      = 2007-010B
CENTER_NAME    = EARTH
REF_FRAME      = TEME
TIME_SYSTEM    = UTC
MEAN_ELEMENT_THEORY = SGP/SGP4

EPOCH          = 2025-12-29T06:36:03.203712
MEAN_MOTION    = 14.20217058
ECCENTRICITY   = .00597933
INCLINATION    = 98.3974
RA_OF_ASC_NODE = 115.0938
ARG_OF_PERICENTER = 138.2318
MEAN_ANOMALY   = 222.3447

EPHEMERIS_TYPE = 0
CLASSIFICATION_TYPE = U
NORAD_CAT_ID   = 31114
ELEMENT_SET_NO = 999
REV_AT_EPOCH   = 96972
BSTAR          = .12630817E-3
MEAN_MOTION_DOT = .234E-5
MEAN_MOTION_DDOT = 0

CCSDS_OMM_VERS = 2.0
CREATION_DATE  = 
ORIGINATOR     = 

OBJECT_NAME    = COSMO-SKYMED 1
OBJECT_ID      = 2007-023A
CENTER_NAME    = EARTH
REF_FRAME      = TEME
TIME_SYSTEM    = UTC
MEAN_ELEMENT_THEORY = SGP/SGP4

EPOCH          = 2025-12-29T05:51:30.063744
MEAN_MOTION    = 14.95893942
ECCENTRICITY   = .00010163
INCLINATION    = 97.8835
RA_OF_ASC_NODE = 188.7525
ARG_OF_PERICENTER = 80.0268
MEAN_ANOMALY   = 280.1067

EPHEMERIS_TYPE = 0
CLASSIFICATION_TYPE = U
NORAD_CAT_ID   = 31598
ELEMENT_SET_NO = 999
REV_AT_EPOCH   = 437
BSTAR          = .514077E-3
MEAN_MOTION_DOT = .5693E-4
MEAN_MOTION_DDOT = 0

CCSDS_OMM_VERS = 2.0
CREATION_DATE  = 
ORIGINATOR     = 

OBJECT_NAME    = COSMOS 2428
OBJECT_ID      = 2007-029A
CENTER_NAME    = EARTH
REF_FRAME      = TEME
TIME_SYSTEM    = UTC
MEAN_ELEMENT_THEORY = SGP/SGP4

EPOCH          = 2025-12-29T03:55:20.470368
MEAN_MOTION    = 14.12897567
ECCENTRICITY   = .00046039
INCLINATION    = 70.9372
RA_OF_ASC_NODE = 351.3958
ARG_OF_PERICENTER = 0.7724
MEAN_ANOMALY   = 359.3403

EPHEMERIS_TYPE = 0
CLASSIFICATION_TYPE = U
NORAD_CAT_ID   = 31792
ELEMENT_SET_NO = 999
REV_AT_EPOCH   = 95413
BSTAR          = .19219098E-3
MEAN_MOTION_DOT = .31E-5
MEAN_MOTION_DDOT = 0

CCSDS_OMM_VERS = 2.0
CREATION_DATE  = 
ORIGINATOR     = 

OBJECT_NAME    = SL-16 R/B
OBJECT_ID      = 2007-029B
CENTER_NAME    = EARTH
REF_FRAME      = TEME
TIME_SYSTEM    = UTC
MEAN_ELEMENT_THEORY = SGP/SGP4

EPOCH          = 2025-12-29T07:24:10.745280
MEAN_MOTION    = 14.14821765
ECCENTRICITY   = .00019279
INCLINATION    = 70.9770
RA_OF_ASC_NODE = 320.3283
ARG_OF_PERICENTER = 268.7371
MEAN_ANOMALY   = 261.9874

EPHEMERIS_TYPE = 0
CLASSIFICATION_TYPE = U
NORAD_CAT_ID   = 31793
ELEMENT_SET_NO = 999
REV_AT_EPOCH   = 95541
BSTAR          = .16874763E-3
MEAN_MOTION_DOT = .278E-5
MEAN_MOTION_DDOT = 0

CCSDS_OMM_VERS = 2.0
CREATION_DATE  = 
ORIGINATOR     = 

OBJECT_NAME    = KORONAS-FOTON
OBJECT_ID      = 2009-003A
CENTER_NAME    = EARTH
REF_FRAME      = TEME
TIME_SYSTEM    = UTC
MEAN_ELEMENT_THEORY = SGP/SGP4

EPOCH          = 2025-12-29T01:11:06.336960
MEAN_MOTION    = 15.41510670
ECCENTRICITY   = .00130675
INCLINATION    = 82.4307
RA_OF_ASC_NODE = 349.2011
ARG_OF_PERICENTER = 57.9365
MEAN_ANOMALY   = 302.3148

EPHEMERIS_TYPE = 0
CLASSIFICATION_TYPE = U
NORAD_CAT_ID   = 33504
ELEMENT_SET_NO = 999
REV_AT_EPOCH   = 93485
BSTAR          = .28135917E-3
MEAN_MOTION_DOT = .11871E-3
MEAN_MOTION_DDOT = 0

CCSDS_OMM_VERS = 2.0
CREATION_DATE  = 
ORIGINATOR     = 

OBJECT_NAME    = CZ-2C R/B
OBJECT_ID      = 2011-030B
CENTER_NAME    = EARTH
REF_FRAME      = TEME
TIME_SYSTEM    = UTC
MEAN_ELEMENT_THEORY = SGP/SGP4

EPOCH          = 2025-12-28T21:02:16.812672
MEAN_MOTION    = 14.80953913
ECCENTRICITY   = .00517293
INCLINATION    = 97.8435
RA_OF_ASC_NODE = 316.6283
ARG_OF_PERICENTER = 219.6948
MEAN_ANOMALY   = 197.7894

EPHEMERIS_TYPE = 0
CLASSIFICATION_TYPE = U
NORAD_CAT_ID   = 37731
ELEMENT_SET_NO = 999
REV_AT_EPOCH   = 77961
BSTAR          = .25419842E-3
MEAN_MOTION_DOT = .1958E-4
MEAN_MOTION_DDOT = 0

CCSDS_OMM_VERS = 2.0
CREATION_DATE  = 
ORIGINATOR     = 

OBJECT_NAME    = H-2A R/B
OBJECT_ID      = 2012-025E
CENTER_NAME    = EARTH
REF_FRAME      = TEME
TIME_SYSTEM    = UTC
MEAN_ELEMENT_THEORY = SGP/SGP4

EPOCH          = 2025-12-28T18:36:35.976096
MEAN_MOTION    = 14.94553120
ECCENTRICITY   = .00448012
INCLINATION    = 98.4621
RA_OF_ASC_NODE = 319.2451
ARG_OF_PERICENTER = 182.5716
MEAN_ANOMALY   = 177.5279

EPHEMERIS_TYPE = 0
CLASSIFICATION_TYPE = U
NORAD_CAT_ID   = 38341
ELEMENT_SET_NO = 999
REV_AT_EPOCH   = 73762
BSTAR          = .41835882E-3
MEAN_MOTION_DOT = .4545E-4
MEAN_MOTION_DDOT = 0

CCSDS_OMM_VERS = 2.0
CREATION_DATE  = 
ORIGINATOR     = 

OBJECT_NAME    = SHIJIAN-16 (SJ-16)
OBJECT_ID      = 2013-057A
CENTER_NAME    = EARTH
REF_FRAME      = TEME
TIME_SYSTEM    = UTC
MEAN_ELEMENT_THEORY = SGP/SGP4

EPOCH          = 2025-12-29T07:10:11.619840
MEAN_MOTION    = 14.92043837
ECCENTRICITY   = .00179539
INCLINATION    = 74.9735
RA_OF_ASC_NODE = 318.3213
ARG_OF_PERICENTER = 281.4032
MEAN_ANOMALY   = 78.5140

EPHEMERIS_TYPE = 0
CLASSIFICATION_TYPE = U
NORAD_CAT_ID   = 39358
ELEMENT_SET_NO = 999
REV_AT_EPOCH   = 66100
BSTAR          = .25977702E-3
MEAN_MOTION_DOT = .2616E-4
MEAN_MOTION_DDOT = 0

